ORBCOMM FM37 [-]        
1 33064U 08031E   24087.36176072  .00003043  00000+0  46536-3 0  9997
2 33064  48.4396 301.8724 0006213 261.1937 269.4970 14.76124479847953
ORBCOMM FM40 [-]        
1 33065U 08031F   24087.32888906  .00003853  00000+0  56439-3 0  9992
2 33065  48.4414 291.8180 0007543 268.6985 260.9238 14.77396894847980
VESSELSAT 1 [-]         
1 37840U 11058C   24087.58937495  .00000492  00000+0  12401-3 0  9993
2 37840  19.9613 275.7845 0013644 315.1334  44.7967 14.11130323643143
ORBCOMM FM109 [+]       
1 40086U 14040A   24086.91836538  .00001793  00000+0  43722-3 0  9990
2 40086  47.0035 325.9279 0001468  53.8448 306.2573 14.56423797515822
ORBCOMM FM107 [+]       
1 40087U 14040B   24087.36439771  .00001792  00000+0  43705-3 0  9999
2 40087  47.0052 324.7881 0001201   7.0163 353.0739 14.56429403515967
ORBCOMM FM106 [-]       
1 40088U 14040C   24087.53285860  .00002199  00000+0  42212-3 0  9991
2 40088  47.0593 180.3694 0017551 157.8355 202.3297 14.66793314517848
ORBCOMM FM111 [-]       
1 40089U 14040D   24087.25662611  .00005299  00000+0  68964-3 0  9990
2 40089  47.0028  87.9021 0033393 221.2740 138.5630 14.81394563523853
ORBCOMM FM104 [-]       
1 40090U 14040E   24087.42827027  .00001653  00000+0  41823-3 0  9990
2 40090  47.0061 352.9141 0017491 323.8012  36.1688 14.54982494515529
